{"type":"FeatureCollection","features":[{"type":"Feature","properties":{"name_th":"บ้านเหลื่อม","name_en":"Ban Lueam","centroid":[102.1404,15.574449999999999]},"geometry":{"type":"Polygon","coordinates":[[[102.1213,15.6462],[102.1423,15.6412],[102.1858,15.6142],[102.2023,15.6182],[102.23,15.614],[102.2331,15.6073],[102.2311,15.5983],[102.2477,15.577],[102.247,15.5474],[102.245,15.5392],[102.2167,15.519],[102.1913,15.5192],[102.1794,15.5303],[102.166,15.5263],[102.1496,15.535],[102.1122,15.5425],[102.1033,15.5265],[102.0655,15.5164],[102.0515,15.5049],[102.0331,15.5018],[102.0425,15.53],[102.0377,15.548],[102.0712,15.6015],[102.0734,15.6203],[102.0734,15.6203],[102.0734,15.6203],[102.0923,15.6276],[102.1145,15.6471],[102.1213,15.6462]]]}},{"type":"Feature","properties":{"name_th":"บัวลาย","name_en":"Bua Lai","centroid":[102.51175,15.6695]},"geometry":{"type":"Polygon","coordinates":[[[102.5311,15.7117],[102.5311,15.7117],[102.5495,15.7056],[102.5495,15.7056],[102.5559,15.7035],[102.5559,15.7035],[102.557,15.7042],[102.557,15.7042],[102.5572,15.7042],[102.5572,15.7042],[102.5585,15.7052],[102.5585,15.7052],[102.5807,15.7067],[102.5807,15.7067],[102.5978,15.7125],[102.6028,15.6698],[102.5778,15.623],[102.5493,15.6259],[102.54,15.6183],[102.5157,15.6197],[102.5157,15.6197],[102.5161,15.6207],[102.5161,15.6207],[102.5159,15.6229],[102.5159,15.6229],[102.5153,15.6228],[102.5153,15.6228],[102.5064,15.6107],[102.4705,15.6127],[102.4745,15.6286],[102.4424,15.6487],[102.4433,15.673],[102.4231,15.6723],[102.4207,15.6951],[102.4533,15.7167],[102.4815,15.7182],[102.5125,15.7283],[102.5311,15.7117]]]}},{"type":"Feature","properties":{"name_th":"บัวใหญ่","name_en":"Bua Yai","centroid":[102.37745,15.5963]},"geometry":{"type":"Polygon","coordinates":[[[102.3928,15.7179],[102.3928,15.7179],[102.3999,15.7109],[102.3999,15.7109],[102.4038,15.7008],[102.4207,15.6951],[102.4231,15.6723],[102.4433,15.673],[102.4424,15.6487],[102.4745,15.6286],[102.4705,15.6127],[102.5064,15.6107],[102.5043,15.5971],[102.5238,15.5772],[102.5218,15.5506],[102.5072,15.5448],[102.4841,15.5535],[102.4603,15.5527],[102.4736,15.4883],[102.5142,15.4742],[102.5206,15.4654],[102.5011,15.4725],[102.48,15.4698],[102.4701,15.4588],[102.4605,15.4669],[102.4352,15.4685],[102.3782,15.5001],[102.3657,15.4927],[102.3492,15.504],[102.3323,15.5021],[102.3178,15.5259],[102.2896,15.5303],[102.247,15.5474],[102.2477,15.577],[102.2311,15.5983],[102.2331,15.6073],[102.2411,15.609],[102.3095,15.6696],[102.3011,15.6808],[102.323,15.6885],[102.3356,15.7001],[102.3562,15.7066],[102.3628,15.7298],[102.3718,15.7338],[102.3928,15.7179]]]}},{"type":"Feature","properties":{"name_th":"จักราช","name_en":"Chakkarat","centroid":[102.44,14.968]},"geometry":{"type":"Polygon","coordinates":[[[102.4841,15.0813],[102.5106,15.0394],[102.5158,14.9921],[102.5458,14.9469],[102.5675,14.9279],[102.546,14.9027],[102.5407,14.8889],[102.552,14.8598],[102.5327,14.813],[102.5026,14.8022],[102.4707,14.8167],[102.4579,14.8351],[102.453,14.8446],[102.4303,14.8409],[102.4171,14.8548],[102.4007,14.845],[102.3903,14.8548],[102.3903,14.8548],[102.3765,14.8478],[102.3765,14.8478],[102.3596,14.8399],[102.3489,14.8264],[102.3302,14.8379],[102.3208,14.8563],[102.3145,14.8673],[102.3125,14.8798],[102.3405,14.896],[102.3297,14.9374],[102.3427,14.9273],[102.3576,14.9274],[102.3768,14.9137],[102.3765,14.9303],[102.385,14.9316],[102.3865,14.9534],[102.3974,14.9934],[102.3932,15.0137],[102.3604,15.0157],[102.3369,15.0112],[102.3327,15.0251],[102.3419,15.0339],[102.3182,15.0603],[102.3202,15.0681],[102.3605,15.0853],[102.3498,15.1072],[102.3663,15.1174],[102.3788,15.1338],[102.3971,15.1192],[102.404,15.0815],[102.4266,15.0816],[102.4519,15.0691],[102.4661,15.0689],[102.4841,15.0813]]]}},{"type":"Feature","properties":{"name_th":"เฉลิมพระเกียรติ","name_en":"Chaloem Phra Kiat","centroid":[102.3029,14.993649999999999]},"geometry":{"type":"Polygon","coordinates":[[[102.3182,15.0603],[102.3419,15.0339],[102.3327,15.0251],[102.3369,15.0112],[102.3604,15.0157],[102.3932,15.0137],[102.3974,14.9934],[102.3865,14.9534],[102.385,14.9316],[102.3765,14.9303],[102.3768,14.9137],[102.3576,14.9274],[102.3427,14.9273],[102.3297,14.9374],[102.3405,14.896],[102.3125,14.8798],[102.3145,14.8673],[102.2959,14.8907],[102.2701,14.8992],[102.2711,14.9064],[102.2711,14.9064],[102.2455,14.9075],[102.2283,14.9183],[102.2306,14.9363],[102.2222,14.95],[102.2223,14.9813],[102.2142,14.9921],[102.2189,15.0253],[102.2142,15.0392],[102.2084,15.0927],[102.2084,15.0927],[102.2107,15.12],[102.2222,15.1161],[102.2459,15.0724],[102.2512,15.0447],[102.2768,15.0293],[102.3182,15.0603]]]}},{"type":"Feature","properties":{"name_th":"โชคชัย","name_en":"Chok Chai","centroid":[102.21235,14.754750000000001]},"geometry":{"type":"Polygon","coordinates":[[[102.2283,14.9183],[102.2455,14.9075],[102.2711,14.9064],[102.2711,14.9064],[102.2701,14.8992],[102.2959,14.8907],[102.3145,14.8673],[102.3208,14.8563],[102.3048,14.8537],[102.2938,14.8334],[102.2873,14.8031],[102.2789,14.7937],[102.28,14.7584],[102.28,14.7584],[102.2896,14.7275],[102.2646,14.7149],[102.2615,14.7032],[102.2672,14.6775],[102.2636,14.6546],[102.2702,14.6384],[102.2701,14.6134],[102.2409,14.6147],[102.2231,14.5969],[102.1911,14.5912],[102.171,14.5921],[102.1654,14.6118],[102.1505,14.6159],[102.1528,14.65],[102.1311,14.6399],[102.1245,14.6537],[102.1281,14.6785],[102.1364,14.6806],[102.1361,14.6977],[102.1251,14.708],[102.1251,14.708],[102.114,14.7131],[102.1166,14.7515],[102.1065,14.7914],[102.1039,14.8363],[102.1168,14.8524],[102.1357,14.8597],[102.153,14.8551],[102.1818,14.8761],[102.1878,14.8947],[102.2033,14.8962],[102.2283,14.9183]]]}},{"type":"Feature","properties":{"name_th":"ชุมพวง","name_en":"Chum Phuang","centroid":[102.74334999999999,15.2669]},"geometry":{"type":"Polygon","coordinates":[[[102.7544,15.4313],[102.7714,15.4231],[102.7794,15.3811],[102.8051,15.3771],[102.8051,15.3771],[102.8162,15.3823],[102.8162,15.3823],[102.8347,15.3864],[102.8448,15.4054],[102.8467,15.2952],[102.8315,15.2821],[102.8252,15.2639],[102.8438,15.2598],[102.8486,15.2457],[102.8739,15.2423],[102.8743,15.2243],[102.8605,15.209],[102.8682,15.1659],[102.847,15.1689],[102.8401,15.1615],[102.8401,15.1615],[102.8237,15.155],[102.816,15.1373],[102.7887,15.107],[102.7798,15.09],[102.7627,15.081],[102.7293,15.0965],[102.7253,15.1109],[102.7091,15.1236],[102.7048,15.1404],[102.7048,15.1404],[102.6961,15.1399],[102.6885,15.1582],[102.6714,15.1663],[102.6598,15.1967],[102.652,15.2016],[102.6619,15.2577],[102.6813,15.2769],[102.6955,15.31],[102.6594,15.3122],[102.6575,15.3016],[102.627,15.2978],[102.6124,15.3141],[102.6233,15.322],[102.6192,15.3387],[102.633,15.3594],[102.6645,15.3617],[102.6664,15.3566],[102.689,15.3748],[102.6848,15.3878],[102.6988,15.4316],[102.7002,15.4528],[102.7291,15.4367],[102.7544,15.4313]]]}},{"type":"Feature","properties":{"name_th":"ด่านขุนทด","name_en":"Dan Khun Thot","centroid":[101.66065,15.2359]},"geometry":{"type":"Polygon","coordinates":[[[101.8785,15.3893],[101.8831,15.3726],[101.9165,15.3531],[101.9239,15.3343],[101.9337,15.3309],[101.9196,15.316],[101.9235,15.3055],[101.9135,15.2579],[101.9005,15.2369],[101.9057,15.226],[101.8715,15.224],[101.8741,15.2033],[101.868,15.1899],[101.8778,15.1867],[101.8841,15.1612],[101.9019,15.1543],[101.9019,15.1543],[101.8964,15.1254],[101.8964,15.1254],[101.8888,15.1106],[101.8595,15.1043],[101.8355,15.074],[101.8194,15.0745],[101.787,15.0513],[101.7752,15.0666],[101.7577,15.0766],[101.7387,15.0652],[101.7136,15.0752],[101.7,15.0615],[101.6765,15.0714],[101.6603,15.069],[101.6362,15.0765],[101.6362,15.0765],[101.6315,15.098],[101.5919,15.0988],[101.571,15.0931],[101.5511,15.1051],[101.511,15.0978],[101.5001,15.1111],[101.4669,15.1153],[101.4555,15.1073],[101.4337,15.1057],[101.4193,15.0964],[101.3997,15.1018],[101.402,15.152],[101.3876,15.2285],[101.4576,15.2375],[101.4787,15.2326],[101.497,15.2019],[101.5513,15.2027],[101.5978,15.2143],[101.5934,15.2547],[101.6187,15.2479],[101.6187,15.2479],[101.6321,15.2385],[101.6407,15.265],[101.6246,15.3045],[101.6033,15.3074],[101.5775,15.3335],[101.5764,15.3478],[101.5639,15.3536],[101.5661,15.372],[101.5899,15.3759],[101.5899,15.3759],[101.5951,15.3778],[101.5951,15.3778],[101.597,15.3787],[101.597,15.3787],[101.6191,15.3704],[101.6547,15.4003],[101.6873,15.3922],[101.6998,15.3945],[101.7203,15.3848],[101.7617,15.3814],[101.7786,15.384],[101.8009,15.4024],[101.8037,15.4177],[101.8037,15.4177],[101.8023,15.4205],[101.839,15.4145],[101.8785,15.3893]]]}},{"type":"Feature","properties":{"name_th":"ห้วยแถลง","name_en":"Huai Thalaeng","centroid":[102.64439999999999,15.05]},"geometry":{"type":"Polygon","coordinates":[[[102.7048,15.1404],[102.7048,15.1404],[102.7091,15.1236],[102.7253,15.1109],[102.7293,15.0965],[102.7627,15.081],[102.7749,15.0659],[102.785,15.0691],[102.7867,15.0526],[102.8047,15.0406],[102.7798,15.0255],[102.7813,15.0123],[102.7369,15.0011],[102.7141,14.9836],[102.7141,14.9836],[102.7097,14.9579],[102.6966,14.9337],[102.6008,14.9354],[102.5731,14.957],[102.5458,14.9469],[102.5158,14.9921],[102.5106,15.0394],[102.4841,15.0813],[102.4969,15.0984],[102.5333,15.0973],[102.5619,15.0886],[102.5718,15.0952],[102.5848,15.1567],[102.6094,15.1528],[102.6138,15.1427],[102.6352,15.143],[102.6528,15.1615],[102.6714,15.1663],[102.6885,15.1582],[102.6961,15.1399],[102.7048,15.1404]]]}},{"type":"Feature","properties":{"name_th":"แก้งสนามนาง","name_en":"Kaeng Sanam Nang","centroid":[102.24255,15.707550000000001]},"geometry":{"type":"Polygon","coordinates":[[[102.3276,15.8034],[102.3271,15.7993],[102.3638,15.765],[102.3638,15.765],[102.3637,15.7609],[102.3637,15.7609],[102.3616,15.7554],[102.3616,15.7554],[102.361,15.7546],[102.361,15.7546],[102.3628,15.7298],[102.3562,15.7066],[102.3356,15.7001],[102.323,15.6885],[102.3011,15.6808],[102.3095,15.6696],[102.2411,15.609],[102.2331,15.6073],[102.23,15.614],[102.2023,15.6182],[102.1858,15.6142],[102.1423,15.6412],[102.1213,15.6462],[102.1242,15.6632],[102.1431,15.6772],[102.1432,15.7068],[102.162,15.7257],[102.1577,15.7421],[102.179,15.7473],[102.2016,15.7413],[102.205,15.7573],[102.2327,15.7436],[102.2521,15.7594],[102.2525,15.7703],[102.2563,15.7814],[102.281,15.7838],[102.281,15.7838],[102.3069,15.7924],[102.3119,15.8078],[102.3276,15.8034]]]}},{"type":"Feature","properties":{"name_th":"ขามสะแกแสง","name_en":"Kham Sakaesaeng","centroid":[102.16839999999999,15.372800000000002]},"geometry":{"type":"Polygon","coordinates":[[[102.2909,15.3711],[102.2394,15.3345],[102.1919,15.3219],[102.1846,15.2804],[102.1589,15.2794],[102.1445,15.2913],[102.1396,15.3094],[102.1106,15.3116],[102.0861,15.3179],[102.0837,15.326],[102.0837,15.326],[102.0828,15.3284],[102.0828,15.3284],[102.0804,15.3343],[102.0804,15.3343],[102.0795,15.3354],[102.0795,15.3354],[102.0725,15.3385],[102.0725,15.3385],[102.0716,15.3392],[102.0716,15.3392],[102.0611,15.3547],[102.0701,15.3785],[102.0486,15.3866],[102.044,15.415],[102.061,15.4131],[102.0876,15.4317],[102.1748,15.463],[102.2267,15.4662],[102.2546,15.4471],[102.2615,15.428],[102.2928,15.4078],[102.2909,15.3711]]]}},{"type":"Feature","properties":{"name_th":"ขามทะเลสอ","name_en":"Kham Thale So","centroid":[101.91525,15.020900000000001]},"geometry":{"type":"Polygon","coordinates":[[[101.995,15.0853],[101.9933,15.0346],[101.9766,15.0124],[101.9741,15.0001],[101.9741,15.0001],[101.9945,14.9613],[101.9842,14.9468],[101.9419,14.9312],[101.9109,14.9341],[101.9109,14.9341],[101.8997,14.9406],[101.9041,14.9542],[101.8877,14.9942],[101.8904,15.0094],[101.8844,15.0462],[101.8509,15.0711],[101.8391,15.0728],[101.8391,15.0728],[101.8378,15.0731],[101.8378,15.0731],[101.8355,15.074],[101.8595,15.1043],[101.8888,15.1106],[101.908,15.1058],[101.9266,15.1085],[101.9515,15.095],[101.995,15.0853]]]}},{"type":"Feature","properties":{"name_th":"ครบุรี","name_en":"Khon Buri","centroid":[102.199,14.385100000000001]},"geometry":{"type":"Polygon","coordinates":[[[102.2701,14.6134],[102.3309,14.5994],[102.3538,14.6074],[102.3665,14.62],[102.3754,14.6045],[102.4314,14.5919],[102.4169,14.5666],[102.4131,14.5237],[102.3939,14.503],[102.3803,14.4685],[102.3769,14.4438],[102.3794,14.3994],[102.3649,14.3542],[102.3791,14.3417],[102.3674,14.3183],[102.3792,14.299],[102.3636,14.2921],[102.3555,14.2727],[102.3756,14.2368],[102.3622,14.2227],[102.3671,14.201],[102.3593,14.1659],[102.358,14.1342],[102.3356,14.1211],[102.326,14.1284],[102.3084,14.1202],[102.2995,14.1287],[102.2995,14.1287],[102.2905,14.1344],[102.2905,14.1344],[102.2717,14.1291],[102.27,14.1462],[102.2494,14.1403],[102.2156,14.1458],[102.2137,14.1694],[102.1908,14.1958],[102.1745,14.1893],[102.166,14.1709],[102.166,14.1709],[102.1676,14.1431],[102.1508,14.137],[102.1281,14.1399],[102.1062,14.1518],[102.104,14.1535],[102.104,14.1535],[102.0797,14.1623],[102.0797,14.1623],[102.0407,14.1883],[102.0346,14.1983],[102.0155,14.2003],[101.9666,14.2278],[101.9948,14.2308],[102.0195,14.249],[102.0029,14.284],[102.0212,14.2986],[102.0255,14.3181],[102.0453,14.3256],[102.0493,14.3437],[102.066,14.3488],[102.0556,14.3937],[102.0686,14.4057],[102.0538,14.4078],[102.0633,14.4243],[102.0432,14.4589],[102.0409,14.4903],[102.0511,14.5128],[102.0314,14.5235],[102.0439,14.5376],[102.0439,14.5376],[102.0473,14.5453],[102.07,14.5665],[102.07,14.5665],[102.0801,14.5748],[102.0801,14.5748],[102.0965,14.5951],[102.0965,14.5951],[102.1043,14.6292],[102.1311,14.6399],[102.1528,14.65],[102.1505,14.6159],[102.1654,14.6118],[102.171,14.5921],[102.1911,14.5912],[102.2231,14.5969],[102.2409,14.6147],[102.2701,14.6134]]]}},{"type":"Feature","properties":{"name_th":"คง","name_en":"Khong","centroid":[102.26885,15.4097]},"geometry":{"type":"Polygon","coordinates":[[[102.4701,15.4588],[102.4331,15.4058],[102.4337,15.3974],[102.4611,15.4124],[102.5015,15.3953],[102.5259,15.379],[102.5277,15.3721],[102.5079,15.3671],[102.4998,15.3471],[102.4537,15.3256],[102.4423,15.3016],[102.4303,15.2959],[102.4184,15.273],[102.4099,15.272],[102.4099,15.272],[102.4046,15.2939],[102.397,15.2972],[102.3879,15.2815],[102.3466,15.2795],[102.3399,15.2924],[102.3422,15.3233],[102.3757,15.3612],[102.3584,15.3744],[102.3118,15.3841],[102.2909,15.3711],[102.2928,15.4078],[102.2615,15.428],[102.2546,15.4471],[102.2267,15.4662],[102.1748,15.463],[102.0876,15.4317],[102.061,15.4131],[102.044,15.415],[102.0472,15.4337],[102.0146,15.4495],[102.01,15.4582],[102.0143,15.4615],[102.0143,15.4615],[102.035,15.478],[102.0331,15.5018],[102.0515,15.5049],[102.0655,15.5164],[102.1033,15.5265],[102.1122,15.5425],[102.1496,15.535],[102.166,15.5263],[102.1794,15.5303],[102.1913,15.5192],[102.2167,15.519],[102.245,15.5392],[102.247,15.5474],[102.2896,15.5303],[102.3178,15.5259],[102.3323,15.5021],[102.3492,15.504],[102.3657,15.4927],[102.3782,15.5001],[102.4352,15.4685],[102.4605,15.4669],[102.4701,15.4588]]]}},{"type":"Feature","properties":{"name_th":"ลำทะเมนชัย","name_en":"Lam Thamenchai","centroid":[102.9058,15.28565]},"geometry":{"type":"Polygon","coordinates":[[[102.8595,15.395],[102.8595,15.395],[102.8685,15.3894],[102.8685,15.3894],[102.8748,15.374],[102.9065,15.374],[102.9065,15.374],[102.9347,15.3684],[102.9406,15.3839],[102.9509,15.3822],[102.9509,15.3822],[102.9551,15.3827],[102.9864,15.3739],[102.9774,15.3441],[102.9848,15.3216],[102.9524,15.3147],[102.9679,15.2909],[102.9557,15.2734],[102.9609,15.2382],[102.959,15.2195],[102.9745,15.2068],[102.9664,15.1928],[102.9323,15.1823],[102.9173,15.1883],[102.8991,15.1759],[102.8869,15.1844],[102.8682,15.1659],[102.8605,15.209],[102.8743,15.2243],[102.8739,15.2423],[102.8486,15.2457],[102.8438,15.2598],[102.8252,15.2639],[102.8315,15.2821],[102.8467,15.2952],[102.8448,15.4054],[102.8595,15.395]]]}},{"type":"Feature","properties":{"name_th":"เมืองนครราชสีมา","name_en":"Mueang Nakhon Ratchasima","centroid":[102.08195,14.96595]},"geometry":{"type":"Polygon","coordinates":[[[102.2107,15.12],[102.2084,15.0927],[102.2084,15.0927],[102.2142,15.0392],[102.2189,15.0253],[102.2142,14.9921],[102.2223,14.9813],[102.2222,14.95],[102.2306,14.9363],[102.2283,14.9183],[102.2033,14.8962],[102.1878,14.8947],[102.1818,14.8761],[102.153,14.8551],[102.1357,14.8597],[102.1168,14.8524],[102.1039,14.8363],[102.1065,14.7914],[102.0967,14.7925],[102.0967,14.7925],[102.0911,14.7975],[102.0911,14.7975],[102.0733,14.8136],[102.0733,14.8136],[102.0553,14.8316],[102.0553,14.8316],[102.0509,14.8414],[102.0307,14.8432],[101.9904,14.8391],[101.9892,14.8302],[101.969,14.8088],[101.9684,14.823],[101.9616,14.8426],[101.9616,14.8426],[101.9597,14.8667],[101.942,14.8797],[101.9333,14.9036],[101.9333,14.9036],[101.9419,14.9312],[101.9842,14.9468],[101.9945,14.9613],[101.9741,15.0001],[101.9741,15.0001],[101.9766,15.0124],[101.9933,15.0346],[101.995,15.0853],[101.9953,15.0852],[101.9953,15.0852],[102.0118,15.0862],[102.0202,15.073],[102.0356,15.0743],[102.0356,15.0743],[102.0723,15.0734],[102.0882,15.0816],[102.0799,15.0983],[102.0928,15.1321],[102.1206,15.1378],[102.1362,15.124],[102.1362,15.124],[102.156,15.1344],[102.1813,15.1405],[102.1829,15.1289],[102.2107,15.12]]]}},{"type":"Feature","properties":{"name_th":"เมืองยาง","name_en":"Mueang Yang","centroid":[102.88225,15.444949999999999]},"geometry":{"type":"Polygon","coordinates":[[[102.8959,15.5215],[102.9229,15.5021],[102.9406,15.478],[102.9406,15.478],[102.9783,15.4822],[102.985,15.467],[103.0101,15.4365],[102.9935,15.4145],[102.9784,15.4168],[102.9793,15.4283],[102.9655,15.42],[102.9672,15.408],[102.9518,15.4038],[102.9551,15.3827],[102.9509,15.3822],[102.9509,15.3822],[102.9406,15.3839],[102.9347,15.3684],[102.9065,15.374],[102.9065,15.374],[102.8748,15.374],[102.8685,15.3894],[102.8685,15.3894],[102.8595,15.395],[102.8595,15.395],[102.8448,15.4054],[102.8347,15.3864],[102.8162,15.3823],[102.8162,15.3823],[102.8051,15.3771],[102.8051,15.3771],[102.7794,15.3811],[102.7714,15.4231],[102.7544,15.4313],[102.7684,15.4319],[102.7901,15.4429],[102.8402,15.4985],[102.8335,15.5108],[102.8713,15.5195],[102.8959,15.5215]]]}},{"type":"Feature","properties":{"name_th":"โนนแดง","name_en":"Non Daeng","centroid":[102.52185,15.45385]},"geometry":{"type":"Polygon","coordinates":[[[102.6083,15.5309],[102.5935,15.5177],[102.5978,15.499],[102.5913,15.491],[102.5986,15.4748],[102.5934,15.4569],[102.6076,15.4457],[102.6106,15.4398],[102.5973,15.418],[102.5786,15.4215],[102.5499,15.3913],[102.5415,15.3739],[102.5277,15.3721],[102.5259,15.379],[102.5015,15.3953],[102.4611,15.4124],[102.4337,15.3974],[102.4331,15.4058],[102.4701,15.4588],[102.48,15.4698],[102.5011,15.4725],[102.5206,15.4654],[102.5255,15.4707],[102.5255,15.4707],[102.5273,15.4809],[102.5273,15.4809],[102.5355,15.4934],[102.5355,15.4934],[102.5402,15.5185],[102.5364,15.5344],[102.5663,15.5356],[102.5756,15.5295],[102.6083,15.5309]]]}},{"type":"Feature","properties":{"name_th":"โนนสูง","name_en":"Non Sung","centroid":[102.27805000000001,15.2067]},"geometry":{"type":"Polygon","coordinates":[[[102.4099,15.272],[102.4099,15.272],[102.4184,15.273],[102.4355,15.25],[102.3849,15.2301],[102.3668,15.2125],[102.3777,15.1902],[102.3684,15.1615],[102.3788,15.1338],[102.3663,15.1174],[102.3498,15.1072],[102.3605,15.0853],[102.3202,15.0681],[102.3182,15.0603],[102.2768,15.0293],[102.2512,15.0447],[102.2459,15.0724],[102.2222,15.1161],[102.2107,15.12],[102.1829,15.1289],[102.1813,15.1405],[102.156,15.1344],[102.1362,15.124],[102.1362,15.124],[102.1206,15.1378],[102.1266,15.1486],[102.1422,15.2105],[102.1723,15.2141],[102.1781,15.2215],[102.1744,15.2439],[102.159,15.2657],[102.1589,15.2794],[102.1846,15.2804],[102.1919,15.3219],[102.2394,15.3345],[102.2909,15.3711],[102.3118,15.3841],[102.3584,15.3744],[102.3757,15.3612],[102.3422,15.3233],[102.3399,15.2924],[102.3466,15.2795],[102.3879,15.2815],[102.397,15.2972],[102.4046,15.2939],[102.4099,15.272]]]}},{"type":"Feature","properties":{"name_th":"โนนไทย","name_en":"Non Thai","centroid":[102.02305,15.1923]},"geometry":{"type":"Polygon","coordinates":[[[102.1589,15.2794],[102.159,15.2657],[102.1744,15.2439],[102.1781,15.2215],[102.1723,15.2141],[102.1422,15.2105],[102.1266,15.1486],[102.1206,15.1378],[102.0928,15.1321],[102.0799,15.0983],[102.0882,15.0816],[102.0723,15.0734],[102.0356,15.0743],[102.0356,15.0743],[102.0202,15.073],[102.0118,15.0862],[101.9953,15.0852],[101.9953,15.0852],[101.995,15.0853],[101.9515,15.095],[101.9266,15.1085],[101.908,15.1058],[101.8888,15.1106],[101.8964,15.1254],[101.8964,15.1254],[101.9019,15.1543],[101.9019,15.1543],[101.8841,15.1612],[101.8778,15.1867],[101.868,15.1899],[101.8741,15.2033],[101.8715,15.224],[101.9057,15.226],[101.9005,15.2369],[101.9135,15.2579],[101.9235,15.3055],[101.9324,15.2906],[101.9507,15.2802],[101.94,15.2606],[101.944,15.2473],[101.9708,15.239],[101.9729,15.2238],[101.9853,15.235],[102.0035,15.2383],[102.0182,15.2527],[102.0051,15.2662],[102.0264,15.2771],[102.0358,15.3044],[102.0614,15.2776],[102.0749,15.2851],[102.0881,15.3056],[102.1106,15.3116],[102.1396,15.3094],[102.1445,15.2913],[102.1589,15.2794]]]}},{"type":"Feature","properties":{"name_th":"หนองบุญมาก","name_en":"Nong Bun Mak","centroid":[102.3693,14.7241]},"geometry":{"type":"Polygon","coordinates":[[[102.3208,14.8563],[102.3302,14.8379],[102.3489,14.8264],[102.3596,14.8399],[102.3765,14.8478],[102.3765,14.8478],[102.3903,14.8548],[102.3903,14.8548],[102.4007,14.845],[102.4171,14.8548],[102.4303,14.8409],[102.453,14.8446],[102.4579,14.8351],[102.4476,14.8209],[102.4476,14.8209],[102.4474,14.8204],[102.4474,14.8204],[102.4431,14.8016],[102.4431,14.8016],[102.4414,14.8017],[102.4414,14.8017],[102.4399,14.7978],[102.4399,14.7978],[102.4399,14.7977],[102.4399,14.7977],[102.4426,14.7923],[102.4426,14.7923],[102.4562,14.7666],[102.4721,14.7627],[102.4771,14.7334],[102.4631,14.7169],[102.4601,14.6991],[102.4755,14.6554],[102.4712,14.6145],[102.4314,14.5919],[102.3754,14.6045],[102.3665,14.62],[102.3538,14.6074],[102.3309,14.5994],[102.2701,14.6134],[102.2702,14.6384],[102.2636,14.6546],[102.2672,14.6775],[102.2615,14.7032],[102.2646,14.7149],[102.2896,14.7275],[102.28,14.7584],[102.28,14.7584],[102.2789,14.7937],[102.2873,14.8031],[102.2938,14.8334],[102.3048,14.8537],[102.3208,14.8563]]]}},{"type":"Feature","properties":{"name_th":"ปากช่อง","name_en":"Pak Chong","centroid":[101.4602,14.642949999999999]},"geometry":{"type":"Polygon","coordinates":[[[101.6787,14.6931],[101.694,14.6829],[101.7079,14.6854],[101.7219,14.6735],[101.7249,14.6517],[101.7323,14.6443],[101.7044,14.6242],[101.6847,14.6259],[101.6886,14.615],[101.6735,14.5756],[101.6892,14.5727],[101.7137,14.532],[101.7246,14.5345],[101.7222,14.51],[101.739,14.4982],[101.7288,14.4778],[101.7344,14.471],[101.7166,14.4554],[101.6769,14.4732],[101.6784,14.488],[101.6644,14.4806],[101.6458,14.4858],[101.6398,14.4733],[101.6473,14.4259],[101.6419,14.4205],[101.6228,14.4277],[101.6103,14.438],[101.5892,14.4416],[101.5782,14.4365],[101.5473,14.4362],[101.5397,14.4252],[101.5019,14.4405],[101.4877,14.4616],[101.4711,14.4593],[101.4711,14.4593],[101.4369,14.4463],[101.447,14.4202],[101.4323,14.3895],[101.4222,14.3837],[101.3904,14.4202],[101.3904,14.4202],[101.3821,14.4342],[101.3527,14.4546],[101.3123,14.4714],[101.3069,14.4976],[101.2838,14.4892],[101.2843,14.5018],[101.2726,14.5125],[101.2455,14.4898],[101.2428,14.4711],[101.2103,14.5202],[101.1903,14.5281],[101.1814,14.5474],[101.1904,14.5544],[101.2158,14.5904],[101.2042,14.6084],[101.2056,14.6245],[101.2056,14.6245],[101.2054,14.653],[101.1994,14.6933],[101.1994,14.6933],[101.1851,14.7218],[101.194,14.7317],[101.1887,14.7492],[101.1989,14.7559],[101.216,14.7471],[101.216,14.7471],[101.2186,14.7458],[101.2186,14.7458],[101.2341,14.7348],[101.2711,14.7265],[101.2824,14.7291],[101.2824,14.7291],[101.2824,14.7449],[101.2986,14.7372],[101.3032,14.7527],[101.3032,14.7527],[101.3248,14.7584],[101.3361,14.7705],[101.3361,14.7705],[101.3362,14.7859],[101.3681,14.8056],[101.3763,14.8056],[101.4015,14.8235],[101.4152,14.8444],[101.4511,14.8588],[101.4511,14.8588],[101.4513,14.8735],[101.4513,14.8735],[101.4486,14.9022],[101.4563,14.9012],[101.465,14.8778],[101.4863,14.8559],[101.4917,14.8417],[101.5136,14.8325],[101.5531,14.85],[101.5621,14.8274],[101.5521,14.8115],[101.5458,14.7808],[101.5721,14.7667],[101.5772,14.7571],[101.5996,14.7535],[101.6108,14.7425],[101.6182,14.7134],[101.6463,14.7149],[101.6553,14.7022],[101.6787,14.6931]]]}},{"type":"Feature","properties":{"name_th":"ปักธงชัย","name_en":"Pak Thong Chai","centroid":[101.9198,14.671199999999999]},"geometry":{"type":"Polygon","coordinates":[[[102.0553,14.8316],[102.0553,14.8316],[102.0733,14.8136],[102.0733,14.8136],[102.0911,14.7975],[102.0911,14.7975],[102.0967,14.7925],[102.0967,14.7925],[102.1065,14.7914],[102.1166,14.7515],[102.114,14.7131],[102.1251,14.708],[102.1251,14.708],[102.1361,14.6977],[102.1364,14.6806],[102.1281,14.6785],[102.1245,14.6537],[102.1311,14.6399],[102.1043,14.6292],[102.0965,14.5951],[102.0965,14.5951],[102.0801,14.5748],[102.0801,14.5748],[102.07,14.5665],[102.07,14.5665],[102.0473,14.5453],[102.0165,14.5628],[102.013,14.579],[101.9956,14.582],[101.9956,14.582],[101.9949,14.5789],[101.9949,14.5789],[101.9915,14.5722],[101.9915,14.5722],[101.9884,14.5692],[101.9884,14.5692],[101.9696,14.5665],[101.9696,14.5665],[101.9475,14.5477],[101.9149,14.548],[101.8931,14.5355],[101.8738,14.5],[101.857,14.4992],[101.8353,14.5159],[101.8356,14.5093],[101.8072,14.5075],[101.8072,14.5075],[101.8058,14.5071],[101.8058,14.5071],[101.7952,14.5076],[101.7952,14.5076],[101.7726,14.5166],[101.7726,14.5166],[101.7698,14.5181],[101.7698,14.5181],[101.7619,14.5271],[101.7571,14.5502],[101.7736,14.5759],[101.7872,14.6085],[101.76,14.6031],[101.744,14.6399],[101.7323,14.6443],[101.7249,14.6517],[101.7219,14.6735],[101.7079,14.6854],[101.7032,14.7071],[101.7116,14.721],[101.7456,14.7318],[101.7456,14.7318],[101.7765,14.7137],[101.7792,14.7012],[101.8081,14.6968],[101.8146,14.6865],[101.8361,14.6873],[101.8575,14.7041],[101.8717,14.702],[101.8796,14.7152],[101.8796,14.7152],[101.8782,14.7184],[101.8782,14.7184],[101.8811,14.7207],[101.8811,14.7207],[101.8848,14.7221],[101.8848,14.7221],[101.8859,14.7224],[101.8859,14.7224],[101.8885,14.7216],[101.8885,14.7216],[101.8902,14.7194],[101.8902,14.7194],[101.8916,14.7174],[101.8916,14.7174],[101.8917,14.7173],[101.8917,14.7173],[101.8918,14.7173],[101.8918,14.7173],[101.8918,14.7172],[101.8918,14.7172],[101.8918,14.7172],[101.8918,14.7172],[101.892,14.7172],[101.892,14.7172],[101.8921,14.7172],[101.8921,14.7172],[101.8941,14.7173],[101.8941,14.7173],[101.8953,14.7174],[101.8953,14.7174],[101.9131,14.7329],[101.8909,14.7582],[101.9215,14.77],[101.9576,14.807],[101.9684,14.823],[101.969,14.8088],[101.9892,14.8302],[101.9904,14.8391],[102.0307,14.8432],[102.0509,14.8414],[102.0553,14.8316]]]}},{"type":"Feature","properties":{"name_th":"พิมาย","name_en":"Phimai","centroid":[102.53945,15.2737]},"geometry":{"type":"Polygon","coordinates":[[[102.7002,15.4528],[102.6988,15.4316],[102.6848,15.3878],[102.689,15.3748],[102.6664,15.3566],[102.6645,15.3617],[102.633,15.3594],[102.6192,15.3387],[102.6233,15.322],[102.6124,15.3141],[102.627,15.2978],[102.6575,15.3016],[102.6594,15.3122],[102.6955,15.31],[102.6813,15.2769],[102.6619,15.2577],[102.652,15.2016],[102.6598,15.1967],[102.6714,15.1663],[102.6528,15.1615],[102.6352,15.143],[102.6138,15.1427],[102.6094,15.1528],[102.5848,15.1567],[102.5718,15.0952],[102.5619,15.0886],[102.5333,15.0973],[102.4969,15.0984],[102.4841,15.0813],[102.4661,15.0689],[102.4519,15.0691],[102.4266,15.0816],[102.404,15.0815],[102.3971,15.1192],[102.3788,15.1338],[102.3684,15.1615],[102.3777,15.1902],[102.3668,15.2125],[102.3849,15.2301],[102.4355,15.25],[102.4184,15.273],[102.4303,15.2959],[102.4423,15.3016],[102.4537,15.3256],[102.4998,15.3471],[102.5079,15.3671],[102.5277,15.3721],[102.5415,15.3739],[102.5499,15.3913],[102.5786,15.4215],[102.5973,15.418],[102.6106,15.4398],[102.6076,15.4457],[102.6242,15.463],[102.6466,15.4625],[102.6735,15.477],[102.6793,15.4725],[102.7049,15.4785],[102.7121,15.4714],[102.7002,15.4528]]]}},{"type":"Feature","properties":{"name_th":"พระทองคำ","name_en":"Phra Thong Kham","centroid":[101.99455,15.3442]},"geometry":{"type":"Polygon","coordinates":[[[102.01,15.4582],[102.0146,15.4495],[102.0472,15.4337],[102.044,15.415],[102.0486,15.3866],[102.0701,15.3785],[102.0611,15.3547],[102.0716,15.3392],[102.0716,15.3392],[102.0725,15.3385],[102.0725,15.3385],[102.0795,15.3354],[102.0795,15.3354],[102.0804,15.3343],[102.0804,15.3343],[102.0828,15.3284],[102.0828,15.3284],[102.0837,15.326],[102.0837,15.326],[102.0861,15.3179],[102.1106,15.3116],[102.0881,15.3056],[102.0749,15.2851],[102.0614,15.2776],[102.0358,15.3044],[102.0264,15.2771],[102.0051,15.2662],[102.0182,15.2527],[102.0035,15.2383],[101.9853,15.235],[101.9729,15.2238],[101.9708,15.239],[101.944,15.2473],[101.94,15.2606],[101.9507,15.2802],[101.9324,15.2906],[101.9235,15.3055],[101.9196,15.316],[101.9337,15.3309],[101.9239,15.3343],[101.9165,15.3531],[101.8831,15.3726],[101.8785,15.3893],[101.9112,15.4226],[101.911,15.4334],[101.9317,15.4362],[101.9374,15.4564],[101.9533,15.4547],[101.9891,15.4646],[102.01,15.4582]]]}},{"type":"Feature","properties":{"name_th":"ประทาย","name_en":"Prathai","centroid":[102.71575,15.5795]},"geometry":{"type":"Polygon","coordinates":[[[102.6864,15.7248],[102.6864,15.7248],[102.6876,15.7244],[102.6876,15.7244],[102.6924,15.7132],[102.6924,15.7132],[102.689,15.7055],[102.689,15.7055],[102.7082,15.6851],[102.7152,15.6696],[102.7152,15.6696],[102.7439,15.6696],[102.7506,15.6616],[102.7506,15.6616],[102.7707,15.652],[102.7707,15.652],[102.7766,15.6336],[102.7737,15.632],[102.7737,15.632],[102.7681,15.6269],[102.7801,15.5989],[102.782,15.5722],[102.782,15.5722],[102.782,15.5722],[102.7842,15.571],[102.7842,15.571],[102.7816,15.5616],[102.7816,15.5616],[102.7917,15.5568],[102.7988,15.5358],[102.8157,15.5125],[102.8335,15.5108],[102.8402,15.4985],[102.7901,15.4429],[102.7684,15.4319],[102.7544,15.4313],[102.7291,15.4367],[102.7002,15.4528],[102.7121,15.4714],[102.7049,15.4785],[102.6793,15.4725],[102.6735,15.477],[102.6466,15.4625],[102.6242,15.463],[102.6076,15.4457],[102.5934,15.4569],[102.5986,15.4748],[102.5913,15.491],[102.5978,15.499],[102.5935,15.5177],[102.6083,15.5309],[102.6185,15.5502],[102.6185,15.5502],[102.6183,15.5524],[102.6183,15.5524],[102.6237,15.5742],[102.617,15.6048],[102.6169,15.6439],[102.6028,15.6698],[102.5978,15.7125],[102.6005,15.72],[102.6005,15.72],[102.6135,15.7276],[102.6357,15.7181],[102.6357,15.7181],[102.6363,15.7166],[102.6363,15.7166],[102.6541,15.7163],[102.6541,15.7163],[102.6564,15.7176],[102.6564,15.7176],[102.6564,15.7176],[102.66,15.7168],[102.66,15.7168],[102.6754,15.7249],[102.6754,15.7249],[102.6791,15.7277],[102.6806,15.7272],[102.6806,15.7272],[102.6827,15.7277],[102.6827,15.7277],[102.6864,15.7248]]]}},{"type":"Feature","properties":{"name_th":"สีดา","name_en":"Sida","centroid":[102.542,15.5676]},"geometry":{"type":"Polygon","coordinates":[[[102.6183,15.5524],[102.6183,15.5524],[102.6185,15.5502],[102.6185,15.5502],[102.6083,15.5309],[102.5756,15.5295],[102.5663,15.5356],[102.5364,15.5344],[102.5402,15.5185],[102.5355,15.4934],[102.5355,15.4934],[102.5273,15.4809],[102.5273,15.4809],[102.5255,15.4707],[102.5255,15.4707],[102.5206,15.4654],[102.5142,15.4742],[102.4736,15.4883],[102.4603,15.5527],[102.4841,15.5535],[102.5072,15.5448],[102.5218,15.5506],[102.5238,15.5772],[102.5043,15.5971],[102.5064,15.6107],[102.5153,15.6228],[102.5153,15.6228],[102.5159,15.6229],[102.5159,15.6229],[102.5161,15.6207],[102.5161,15.6207],[102.5157,15.6197],[102.5157,15.6197],[102.54,15.6183],[102.5493,15.6259],[102.5778,15.623],[102.6028,15.6698],[102.6169,15.6439],[102.617,15.6048],[102.6237,15.5742],[102.6183,15.5524]]]}},{"type":"Feature","properties":{"name_th":"สีคิ้ว","name_en":"Sikhio","centroid":[101.59335,14.9042]},"geometry":{"type":"Polygon","coordinates":[[[101.6362,15.0765],[101.6362,15.0765],[101.6603,15.069],[101.6765,15.0714],[101.7,15.0615],[101.7136,15.0752],[101.7387,15.0652],[101.7577,15.0766],[101.7752,15.0666],[101.787,15.0513],[101.7638,15.0034],[101.7588,14.966],[101.7844,14.92],[101.7796,14.9122],[101.7858,14.8836],[101.77,14.885],[101.7549,14.8716],[101.7372,14.8707],[101.7372,14.8707],[101.7153,14.8554],[101.7081,14.8579],[101.6924,14.8419],[101.6956,14.8223],[101.7096,14.8119],[101.7157,14.7937],[101.7062,14.7591],[101.6751,14.7366],[101.6879,14.7126],[101.6787,14.6931],[101.6553,14.7022],[101.6463,14.7149],[101.6182,14.7134],[101.6108,14.7425],[101.5996,14.7535],[101.5772,14.7571],[101.5721,14.7667],[101.5458,14.7808],[101.5521,14.8115],[101.5621,14.8274],[101.5531,14.85],[101.5136,14.8325],[101.4917,14.8417],[101.4863,14.8559],[101.465,14.8778],[101.4563,14.9012],[101.4486,14.9022],[101.4483,14.9096],[101.4483,14.9096],[101.4448,14.9182],[101.4448,14.9182],[101.4382,14.9337],[101.4382,14.9337],[101.4318,14.9686],[101.4318,14.9686],[101.4206,14.9984],[101.4233,15.0132],[101.4172,15.0318],[101.4172,15.0318],[101.4149,15.0384],[101.4149,15.0384],[101.4002,15.0738],[101.3997,15.1018],[101.4193,15.0964],[101.4337,15.1057],[101.4555,15.1073],[101.4669,15.1153],[101.5001,15.1111],[101.511,15.0978],[101.5511,15.1051],[101.571,15.0931],[101.5919,15.0988],[101.6315,15.098],[101.6362,15.0765]]]}},{"type":"Feature","properties":{"name_th":"เสิงสาง","name_en":"Soeng Sang","centroid":[102.52090000000001,14.379449999999999]},"geometry":{"type":"Polygon","coordinates":[[[102.4695,14.5888],[102.4695,14.5888],[102.4667,14.5861],[102.4955,14.5648],[102.4934,14.54],[102.4813,14.512],[102.4933,14.5047],[102.5338,14.5059],[102.6106,14.4941],[102.6071,14.465],[102.5994,14.4476],[102.582,14.4446],[102.5704,14.4287],[102.5629,14.3751],[102.5679,14.364],[102.5823,14.3593],[102.5868,14.3364],[102.6027,14.3225],[102.6221,14.3203],[102.6428,14.3266],[102.6671,14.3157],[102.6863,14.2992],[102.6346,14.2716],[102.5779,14.2267],[102.5481,14.2159],[102.5411,14.2041],[102.5126,14.2013],[102.5022,14.1869],[102.479,14.1989],[102.4532,14.1937],[102.4345,14.1546],[102.41,14.1567],[102.4011,14.1463],[102.4011,14.1463],[102.3895,14.1444],[102.3593,14.1659],[102.3671,14.201],[102.3622,14.2227],[102.3756,14.2368],[102.3555,14.2727],[102.3636,14.2921],[102.3792,14.299],[102.3674,14.3183],[102.3791,14.3417],[102.3649,14.3542],[102.3794,14.3994],[102.3769,14.4438],[102.3803,14.4685],[102.3939,14.503],[102.4131,14.5237],[102.4169,14.5666],[102.4314,14.5919],[102.4712,14.6145],[102.4695,14.5888]]]}},{"type":"Feature","properties":{"name_th":"สูงเนิน","name_en":"Sung Noen","centroid":[101.82175000000001,14.8787]},"geometry":{"type":"Polygon","coordinates":[[[101.8355,15.074],[101.8378,15.0731],[101.8378,15.0731],[101.8391,15.0728],[101.8391,15.0728],[101.8509,15.0711],[101.8844,15.0462],[101.8904,15.0094],[101.8877,14.9942],[101.9041,14.9542],[101.8997,14.9406],[101.9109,14.9341],[101.9109,14.9341],[101.9419,14.9312],[101.9333,14.9036],[101.9333,14.9036],[101.942,14.8797],[101.9597,14.8667],[101.9616,14.8426],[101.9616,14.8426],[101.9684,14.823],[101.9576,14.807],[101.9215,14.77],[101.8909,14.7582],[101.9131,14.7329],[101.8953,14.7174],[101.8953,14.7174],[101.8941,14.7173],[101.8941,14.7173],[101.8921,14.7172],[101.8921,14.7172],[101.892,14.7172],[101.892,14.7172],[101.8918,14.7172],[101.8918,14.7172],[101.8918,14.7172],[101.8918,14.7172],[101.8918,14.7173],[101.8918,14.7173],[101.8917,14.7173],[101.8917,14.7173],[101.8916,14.7174],[101.8916,14.7174],[101.8902,14.7194],[101.8902,14.7194],[101.8885,14.7216],[101.8885,14.7216],[101.8859,14.7224],[101.8859,14.7224],[101.8848,14.7221],[101.8848,14.7221],[101.8811,14.7207],[101.8811,14.7207],[101.8782,14.7184],[101.8782,14.7184],[101.8796,14.7152],[101.8796,14.7152],[101.8717,14.702],[101.8575,14.7041],[101.8361,14.6873],[101.8146,14.6865],[101.8081,14.6968],[101.7792,14.7012],[101.7765,14.7137],[101.7456,14.7318],[101.7456,14.7318],[101.7116,14.721],[101.7032,14.7071],[101.7079,14.6854],[101.694,14.6829],[101.6787,14.6931],[101.6879,14.7126],[101.6751,14.7366],[101.7062,14.7591],[101.7157,14.7937],[101.7096,14.8119],[101.6956,14.8223],[101.6924,14.8419],[101.7081,14.8579],[101.7153,14.8554],[101.7372,14.8707],[101.7372,14.8707],[101.7549,14.8716],[101.77,14.885],[101.7858,14.8836],[101.7796,14.9122],[101.7844,14.92],[101.7588,14.966],[101.7638,15.0034],[101.787,15.0513],[101.8194,15.0745],[101.8355,15.074]]]}},{"type":"Feature","properties":{"name_th":"เทพารักษ์","name_en":"Thepharak","centroid":[101.51055,15.302150000000001]},"geometry":{"type":"Polygon","coordinates":[[[101.5432,15.4024],[101.5661,15.372],[101.5639,15.3536],[101.5764,15.3478],[101.5775,15.3335],[101.6033,15.3074],[101.6246,15.3045],[101.6407,15.265],[101.6321,15.2385],[101.6187,15.2479],[101.6187,15.2479],[101.5934,15.2547],[101.5978,15.2143],[101.5513,15.2027],[101.497,15.2019],[101.4787,15.2326],[101.4576,15.2375],[101.3876,15.2285],[101.3804,15.2897],[101.382,15.3314],[101.3968,15.3323],[101.3968,15.3323],[101.4223,15.3356],[101.4223,15.3356],[101.4354,15.3481],[101.4354,15.3481],[101.5007,15.3564],[101.4959,15.3757],[101.4959,15.3757],[101.4962,15.3758],[101.4962,15.3758],[101.4963,15.3762],[101.4963,15.3762],[101.4964,15.3763],[101.4964,15.3763],[101.4967,15.3761],[101.4967,15.3761],[101.497,15.3762],[101.497,15.3762],[101.4978,15.3761],[101.4978,15.3761],[101.4989,15.3774],[101.4989,15.3774],[101.4991,15.3776],[101.4991,15.3776],[101.4992,15.3779],[101.4992,15.3779],[101.4999,15.3793],[101.4999,15.3793],[101.5158,15.3994],[101.5432,15.4024]]]}},{"type":"Feature","properties":{"name_th":"วังน้ำเขียว","name_en":"Wang Nam Khiao","centroid":[101.84355,14.43605]},"geometry":{"type":"Polygon","coordinates":[[[101.7698,14.5181],[101.7698,14.5181],[101.7726,14.5166],[101.7726,14.5166],[101.7952,14.5076],[101.7952,14.5076],[101.8058,14.5071],[101.8058,14.5071],[101.8072,14.5075],[101.8072,14.5075],[101.8356,14.5093],[101.8353,14.5159],[101.857,14.4992],[101.8738,14.5],[101.8931,14.5355],[101.9149,14.548],[101.9475,14.5477],[101.9696,14.5665],[101.9696,14.5665],[101.9884,14.5692],[101.9884,14.5692],[101.9915,14.5722],[101.9915,14.5722],[101.9949,14.5789],[101.9949,14.5789],[101.9956,14.582],[101.9956,14.582],[102.013,14.579],[102.0165,14.5628],[102.0473,14.5453],[102.0439,14.5376],[102.0439,14.5376],[102.0314,14.5235],[102.0511,14.5128],[102.0409,14.4903],[102.0432,14.4589],[102.0633,14.4243],[102.0538,14.4078],[102.0686,14.4057],[102.0556,14.3937],[102.066,14.3488],[102.0493,14.3437],[102.0453,14.3256],[102.0255,14.3181],[102.0212,14.2986],[102.0029,14.284],[102.0195,14.249],[101.9948,14.2308],[101.9666,14.2278],[101.9815,14.2386],[101.9463,14.2461],[101.9298,14.2918],[101.9433,14.3022],[101.9304,14.3263],[101.8939,14.3304],[101.8923,14.3211],[101.8744,14.3259],[101.8744,14.3259],[101.8385,14.3525],[101.8421,14.3645],[101.8109,14.3476],[101.7955,14.3584],[101.7796,14.3567],[101.7718,14.3451],[101.747,14.3468],[101.7504,14.326],[101.7415,14.3084],[101.7093,14.3342],[101.6893,14.3596],[101.6544,14.3928],[101.649,14.3925],[101.6491,14.4036],[101.6299,14.4068],[101.6185,14.4174],[101.6228,14.4277],[101.6419,14.4205],[101.6473,14.4259],[101.6398,14.4733],[101.6458,14.4858],[101.6644,14.4806],[101.6784,14.488],[101.6769,14.4732],[101.7166,14.4554],[101.7344,14.471],[101.7288,14.4778],[101.739,14.4982],[101.7222,14.51],[101.7246,14.5345],[101.7137,14.532],[101.6892,14.5727],[101.6735,14.5756],[101.6886,14.615],[101.6847,14.6259],[101.7044,14.6242],[101.7323,14.6443],[101.744,14.6399],[101.76,14.6031],[101.7872,14.6085],[101.7736,14.5759],[101.7571,14.5502],[101.7619,14.5271],[101.7698,14.5181]]]}}]}